STARLINK-31313          
1 59088U 24041Q   25341.62981048  .00004937  00000+0  18881-3 0  9995
2 59088  43.0015 110.4769 0001526 265.6981  94.3697 15.27579843100194
STARLINK-31307          
1 59089U 24041R   25342.08365916  .00000547  00000+0  29404-4 0  9994
2 59089  43.0034 107.8679 0001508 272.9006  87.1673 15.27585034100312
STARLINK-31316          
1 59090U 24041S   25342.21788410 -.00000922  00000+0 -23992-4 0  9994
2 59090  43.0043  60.4679 0001035 260.3023  99.7712 15.27570155100763
STARLINK-31310          
1 59092U 24041U   25342.32607818 -.00001570  00000+0 -47543-4 0  9998
2 59092  43.0020 107.1084 0001284 285.9000  74.1710 15.27575500100295
STARLINK-31343          
1 59093U 24041V   25342.05168690  .00003993  00000+0  15456-3 0  9995
2 59093  42.9978 108.4812 0001317 273.8386  86.2315 15.27574128100301
STARLINK-31295          
1 59095U 24041X   25341.63751534  .00001963  00000+0  80837-4 0  9996
2 59095  43.0024 110.5333 0001582 269.0581  91.0089 15.27588084100192
STARLINK-31291          
1 59096U 24041Y   25341.63494910  .00003421  00000+0  13379-3 0  9996
2 59096  43.0013 110.5095 0001453 267.3149  92.7537 15.27574360100192
STARLINK-31312          
1 59152U 24044A   25342.03724379  .00002907  00000+0  11514-3 0  9999
2 59152  43.0001 213.9345 0000720 272.1001  87.9768 15.27573604100164
STARLINK-31308          
1 59153U 24044B   25342.06118815  .00000419  00000+0  24762-4 0  9991
2 59153  43.0019 217.6672 0001483 268.6836  91.3846 15.27583414100134
STARLINK-31270          
1 59154U 24044C   25342.20780792 -.00001033  00000+0 -28037-4 0  9991
2 59154  43.0006 263.7531 0001087 266.4059  93.6669 15.27580754 99601
STARLINK-31341          
1 59155U 24044D   25342.22146278 -.00004526  00000+0 -15504-3 0  9993
2 59155  42.9957 267.2985 0000422 250.0403 110.0403 15.27583384 99535
STARLINK-31338          
1 59156U 24044E   25342.15221815  .00008398  00000+0  31464-3 0  9999
2 59156  42.9985 267.6358 0000776 264.5298  95.5465 15.27549580 99523
STARLINK-31334          
1 59157U 24044F   25342.20988896 -.00001163  00000+0 -32760-4 0  9991
2 59157  43.0012 267.2071 0000864 263.6067  96.4686 15.27588643 99536
STARLINK-31297          
1 59158U 24044G   25342.21165645  .00017155  00000+0  63158-3 0  9992
2 59158  42.9979 263.7823 0001382 245.7160 114.3547 15.27573098 99606
STARLINK-31182          
1 59159U 24044H   25342.17439992 -.00001171  00000+0 -33035-4 0  9992
2 59159  43.0022 263.5076 0000854 276.5067  83.5688 15.27576162 99605
STARLINK-31327          
1 59160U 24044J   25342.14885208 -.00001840  00000+0 -57387-4 0  9995
2 59160  42.9986 264.1690 0000537 270.8128  89.2662 15.27568353 99592
