[{"OBJECT_NAME":"STARLINK-31313","OBJECT_ID":"2024-041Q","EPOCH":"2025-12-07T15:06:55.625472","MEAN_MOTION":15.27579843,"ECCENTRICITY":0.0001526,"INCLINATION":43.0015,"RA_OF_ASC_NODE":110.4769,"ARG_OF_PERICENTER":265.6981,"MEAN_ANOMALY":94.3697,"EPHEMERIS_TYPE":0,"CLASSIFICATION_TYPE":"U","NORAD_CAT_ID":59088,"ELEMENT_SET_NO":999,"REV_AT_EPOCH":10019,"BSTAR":0.00018880666,"MEAN_MOTION_DOT":4.937e-5,"MEAN_MOTION_DDOT":0},{"OBJECT_NAME":"STARLINK-31307","OBJECT_ID":"2024-041R","EPOCH":"2025-12-08T02:00:28.151424","MEAN_MOTION":15.27585034,"ECCENTRICITY":0.00015088,"INCLINATION":43.0034,"RA_OF_ASC_NODE":107.8679,"ARG_OF_PERICENTER":272.9006,"MEAN_ANOMALY":87.1673,"EPHEMERIS_TYPE":0,"CLASSIFICATION_TYPE":"U","NORAD_CAT_ID":59089,"ELEMENT_SET_NO":999,"REV_AT_EPOCH":10031,"BSTAR":2.9403584e-5,"MEAN_MOTION_DOT":5.47e-6,"MEAN_MOTION_DDOT":0},{"OBJECT_NAME":"STARLINK-31316","OBJECT_ID":"2024-041S","EPOCH":"2025-12-08T05:13:45.186240","MEAN_MOTION":15.27570155,"ECCENTRICITY":0.0001035,"INCLINATION":43.0043,"RA_OF_ASC_NODE":60.4679,"ARG_OF_PERICENTER":260.3023,"MEAN_ANOMALY":99.7712,"EPHEMERIS_TYPE":0,"CLASSIFICATION_TYPE":"U","NORAD_CAT_ID":59090,"ELEMENT_SET_NO":999,"REV_AT_EPOCH":10076,"BSTAR":-2.3992112e-5,"MEAN_MOTION_DOT":-9.22e-6,"MEAN_MOTION_DDOT":0},{"OBJECT_NAME":"STARLINK-31310","OBJECT_ID":"2024-041U","EPOCH":"2025-12-08T07:49:33.154752","MEAN_MOTION":15.275755,"ECCENTRICITY":0.00012844,"INCLINATION":43.002,"RA_OF_ASC_NODE":107.1084,"ARG_OF_PERICENTER":285.9,"MEAN_ANOMALY":74.171,"EPHEMERIS_TYPE":0,"CLASSIFICATION_TYPE":"U","NORAD_CAT_ID":59092,"ELEMENT_SET_NO":999,"REV_AT_EPOCH":10029,"BSTAR":-4.7543155e-5,"MEAN_MOTION_DOT":-1.57e-5,"MEAN_MOTION_DDOT":0},{"OBJECT_NAME":"STARLINK-31343","OBJECT_ID":"2024-041V","EPOCH":"2025-12-08T01:14:25.748160","MEAN_MOTION":15.27574128,"ECCENTRICITY":0.00013173,"INCLINATION":42.9978,"RA_OF_ASC_NODE":108.4812,"ARG_OF_PERICENTER":273.8386,"MEAN_ANOMALY":86.2315,"EPHEMERIS_TYPE":0,"CLASSIFICATION_TYPE":"U","NORAD_CAT_ID":59093,"ELEMENT_SET_NO":999,"REV_AT_EPOCH":10030,"BSTAR":0.00015455583,"MEAN_MOTION_DOT":3.993e-5,"MEAN_MOTION_DDOT":0},{"OBJECT_NAME":"STARLINK-31295","OBJECT_ID":"2024-041X","EPOCH":"2025-12-07T15:18:01.325376","MEAN_MOTION":15.27588084,"ECCENTRICITY":0.00015829,"INCLINATION":43.0024,"RA_OF_ASC_NODE":110.5333,"ARG_OF_PERICENTER":269.0581,"MEAN_ANOMALY":91.0089,"EPHEMERIS_TYPE":0,"CLASSIFICATION_TYPE":"U","NORAD_CAT_ID":59095,"ELEMENT_SET_NO":999,"REV_AT_EPOCH":10019,"BSTAR":8.0836856e-5,"MEAN_MOTION_DOT":1.963e-5,"MEAN_MOTION_DDOT":0},{"OBJECT_NAME":"STARLINK-31291","OBJECT_ID":"2024-041Y","EPOCH":"2025-12-07T15:14:19.602240","MEAN_MOTION":15.2757436,"ECCENTRICITY":0.0001453,"INCLINATION":43.0013,"RA_OF_ASC_NODE":110.5095,"ARG_OF_PERICENTER":267.3149,"MEAN_ANOMALY":92.7537,"EPHEMERIS_TYPE":0,"CLASSIFICATION_TYPE":"U","NORAD_CAT_ID":59096,"ELEMENT_SET_NO":999,"REV_AT_EPOCH":10019,"BSTAR":0.00013379181,"MEAN_MOTION_DOT":3.421e-5,"MEAN_MOTION_DDOT":0},{"OBJECT_NAME":"STARLINK-31312","OBJECT_ID":"2024-044A","EPOCH":"2025-12-08T00:53:37.863456","MEAN_MOTION":15.27573604,"ECCENTRICITY":7.2e-5,"INCLINATION":43.0001,"RA_OF_ASC_NODE":213.9345,"ARG_OF_PERICENTER":272.1001,"MEAN_ANOMALY":87.9768,"EPHEMERIS_TYPE":0,"CLASSIFICATION_TYPE":"U","NORAD_CAT_ID":59152,"ELEMENT_SET_NO":999,"REV_AT_EPOCH":10016,"BSTAR":0.00011513581,"MEAN_MOTION_DOT":2.907e-5,"MEAN_MOTION_DDOT":0},{"OBJECT_NAME":"STARLINK-31308","OBJECT_ID":"2024-044B","EPOCH":"2025-12-08T01:28:06.656160","MEAN_MOTION":15.27583414,"ECCENTRICITY":0.00014831,"INCLINATION":43.0019,"RA_OF_ASC_NODE":217.6672,"ARG_OF_PERICENTER":268.6836,"MEAN_ANOMALY":91.3846,"EPHEMERIS_TYPE":0,"CLASSIFICATION_TYPE":"U","NORAD_CAT_ID":59153,"ELEMENT_SET_NO":999,"REV_AT_EPOCH":10013,"BSTAR":2.4762105e-5,"MEAN_MOTION_DOT":4.19e-6,"MEAN_MOTION_DDOT":0},{"OBJECT_NAME":"STARLINK-31270","OBJECT_ID":"2024-044C","EPOCH":"2025-12-08T04:59:14.604288","MEAN_MOTION":15.27580754,"ECCENTRICITY":0.0001087,"INCLINATION":43.0006,"RA_OF_ASC_NODE":263.7531,"ARG_OF_PERICENTER":266.4059,"MEAN_ANOMALY":93.6669,"EPHEMERIS_TYPE":0,"CLASSIFICATION_TYPE":"U","NORAD_CAT_ID":59154,"ELEMENT_SET_NO":999,"REV_AT_EPOCH":9960,"BSTAR":-2.8037236e-5,"MEAN_MOTION_DOT":-1.033e-5,"MEAN_MOTION_DDOT":0},{"OBJECT_NAME":"STARLINK-31341","OBJECT_ID":"2024-044D","EPOCH":"2025-12-08T05:18:54.384192","MEAN_MOTION":15.27583384,"ECCENTRICITY":4.22e-5,"INCLINATION":42.9957,"RA_OF_ASC_NODE":267.2985,"ARG_OF_PERICENTER":250.0403,"MEAN_ANOMALY":110.0403,"EPHEMERIS_TYPE":0,"CLASSIFICATION_TYPE":"U","NORAD_CAT_ID":59155,"ELEMENT_SET_NO":999,"REV_AT_EPOCH":9953,"BSTAR":-0.0001550401,"MEAN_MOTION_DOT":-4.526e-5,"MEAN_MOTION_DDOT":0},{"OBJECT_NAME":"STARLINK-31338","OBJECT_ID":"2024-044E","EPOCH":"2025-12-08T03:39:11.648160","MEAN_MOTION":15.2754958,"ECCENTRICITY":7.761e-5,"INCLINATION":42.9985,"RA_OF_ASC_NODE":267.6358,"ARG_OF_PERICENTER":264.5298,"MEAN_ANOMALY":95.5465,"EPHEMERIS_TYPE":0,"CLASSIFICATION_TYPE":"U","NORAD_CAT_ID":59156,"ELEMENT_SET_NO":999,"REV_AT_EPOCH":9952,"BSTAR":0.00031464374,"MEAN_MOTION_DOT":8.398e-5,"MEAN_MOTION_DDOT":0},{"OBJECT_NAME":"STARLINK-31334","OBJECT_ID":"2024-044F","EPOCH":"2025-12-08T05:02:14.406144","MEAN_MOTION":15.27588643,"ECCENTRICITY":8.641e-5,"INCLINATION":43.0012,"RA_OF_ASC_NODE":267.2071,"ARG_OF_PERICENTER":263.6067,"MEAN_ANOMALY":96.4686,"EPHEMERIS_TYPE":0,"CLASSIFICATION_TYPE":"U","NORAD_CAT_ID":59157,"ELEMENT_SET_NO":999,"REV_AT_EPOCH":9953,"BSTAR":-3.2759646e-5,"MEAN_MOTION_DOT":-1.163e-5,"MEAN_MOTION_DDOT":0},{"OBJECT_NAME":"STARLINK-31297","OBJECT_ID":"2024-044G","EPOCH":"2025-12-08T05:04:47.117280","MEAN_MOTION":15.27573098,"ECCENTRICITY":0.00013824,"INCLINATION":42.9979,"RA_OF_ASC_NODE":263.7823,"ARG_OF_PERICENTER":245.716,"MEAN_ANOMALY":114.3547,"EPHEMERIS_TYPE":0,"CLASSIFICATION_TYPE":"U","NORAD_CAT_ID":59158,"ELEMENT_SET_NO":999,"REV_AT_EPOCH":9960,"BSTAR":0.00063158341,"MEAN_MOTION_DOT":0.00017155,"MEAN_MOTION_DDOT":0},{"OBJECT_NAME":"STARLINK-31182","OBJECT_ID":"2024-044H","EPOCH":"2025-12-08T04:11:08.153088","MEAN_MOTION":15.27576162,"ECCENTRICITY":8.545e-5,"INCLINATION":43.0022,"RA_OF_ASC_NODE":263.5076,"ARG_OF_PERICENTER":276.5067,"MEAN_ANOMALY":83.5688,"EPHEMERIS_TYPE":0,"CLASSIFICATION_TYPE":"U","NORAD_CAT_ID":59159,"ELEMENT_SET_NO":999,"REV_AT_EPOCH":9960,"BSTAR":-3.3035331e-5,"MEAN_MOTION_DOT":-1.171e-5,"MEAN_MOTION_DDOT":0},{"OBJECT_NAME":"STARLINK-31327","OBJECT_ID":"2024-044J","EPOCH":"2025-12-08T03:34:20.819712","MEAN_MOTION":15.27568353,"ECCENTRICITY":5.375e-5,"INCLINATION":42.9986,"RA_OF_ASC_NODE":264.169,"ARG_OF_PERICENTER":270.8128,"MEAN_ANOMALY":89.2662,"EPHEMERIS_TYPE":0,"CLASSIFICATION_TYPE":"U","NORAD_CAT_ID":59160,"ELEMENT_SET_NO":999,"REV_AT_EPOCH":9959,"BSTAR":-5.7386944e-5,"MEAN_MOTION_DOT":-1.84e-5,"MEAN_MOTION_DDOT":0}]
